{"type": "FeatureCollection", "features": [ {"type": "Feature", "properties": {"norad_id": 28659, "name": "DIRECTV 8", "group": "intelsat", "lat": -0.03587570902749177, "lon": -78.3737803625728, "alt_km": 35773.31906003439, "timestamp": "2025-12-08T21:31:04.342700+00:00", "meta": {"OBJECT_NAME": "DIRECTV 8", "OBJECT_ID": "2005-019A", "EPOCH": "2025-12-08T13:58:20.758080", "MEAN_MOTION": 1.00271702, "ECCENTRICITY": 0.00032075, "INCLINATION": 0.017, "RA_OF_ASC_NODE": 357.8351, "ARG_OF_PERICENTER": 263.9766, "MEAN_ANOMALY": 266.3148, "EPHEMERIS_TYPE": 0, "CLASSIFICATION_TYPE": "U", "NORAD_CAT_ID": 28659, "ELEMENT_SET_NO": 999, "REV_AT_EPOCH": 7516, "BSTAR": 0, "MEAN_MOTION_DOT": 3e-08, "MEAN_MOTION_DDOT": 0}, "tle": {"line1": "1 28659U 05019A   25342.58218470  .00000003  00000+0  00000+0 0  9997", "line2": "2 28659   0.0170 357.8351 0003207 263.9766 266.3148  1.00271702 75162"}}, "geometry": {"type": "Point", "coordinates": [-78.3737803625728, -0.03587570902749177]}}, {"type": "Feature", "properties": {"norad_id": 28702, "name": "GALAXY 28 (G-28)", "group": "intelsat", "lat": -2.185460203647662, "lon": -48.02903974030353, "alt_km": 35779.64880468419, "timestamp": "2025-12-08T21:31:04.342712+00:00", "meta": {"OBJECT_NAME": "GALAXY 28 (G-28)", "OBJECT_ID": "2005-022A", "EPOCH": "2025-12-08T12:28:32.519712", "MEAN_MOTION": 1.00271307, "ECCENTRICITY": 0.00026672, "INCLINATION": 2.8078, "RA_OF_ASC_NODE": 81.331, "ARG_OF_PERICENTER": 178.1608, "MEAN_ANOMALY": 276.4849, "EPHEMERIS_TYPE": 0, "CLASSIFICATION_TYPE": "U", "NORAD_CAT_ID": 28702, "ELEMENT_SET_NO": 999, "REV_AT_EPOCH": 5006, "BSTAR": 0, "MEAN_MOTION_DOT": -1.86e-06, "MEAN_MOTION_DDOT": 0}, "tle": {"line1": "1 28702U 05022A   25342.51982083 -.00000186  00000+0  00000+0 0  9994", "line2": "2 28702   2.8078  81.3310 0002667 178.1608 276.4849  1.00271307 50066"}}, "geometry": {"type": "Point", "coordinates": [-48.02903974030353, -2.185460203647662]}}, {"type": "Feature", "properties": {"norad_id": 29236, "name": "GALAXY 16 (G-16)", "group": "intelsat", "lat": -0.0006187133223619143, "lon": -58.32650772730248, "alt_km": 35777.997272044384, "timestamp": "2025-12-08T21:31:04.342724+00:00", "meta": {"OBJECT_NAME": "GALAXY 16 (G-16)", "OBJECT_ID": "2006-023A", "EPOCH": "2025-12-08T12:22:13.984896", "MEAN_MOTION": 1.00272712, "ECCENTRICITY": 0.00029104, "INCLINATION": 0.0097, "RA_OF_ASC_NODE": 98.0987, "ARG_OF_PERICENTER": 152.9659, "MEAN_ANOMALY": 273.0004, "EPHEMERIS_TYPE": 0, "CLASSIFICATION_TYPE": "U", "NORAD_CAT_ID": 29236, "ELEMENT_SET_NO": 999, "REV_AT_EPOCH": 7106, "BSTAR": 0, "MEAN_MOTION_DOT": -1.25e-06, "MEAN_MOTION_DDOT": 0}, "tle": {"line1": "1 29236U 06023A   25342.51543964 -.00000125  00000+0  00000+0 0  9993", "line2": "2 29236   0.0097  98.0987 0002910 152.9659 273.0004  1.00272712 71062"}}, "geometry": {"type": "Point", "coordinates": [-58.32650772730248, -0.0006187133223619143]}}, {"type": "Feature", "properties": {"norad_id": 29494, "name": "DIRECTV 9S", "group": "intelsat", "lat": -1.1565261434073375, "lon": -60.54307051500811, "alt_km": 35776.08472963944, "timestamp": "2025-12-08T21:31:04.342736+00:00", "meta": {"OBJECT_NAME": "DIRECTV 9S", "OBJECT_ID": "2006-043A", "EPOCH": "2025-12-08T12:21:41.000832", "MEAN_MOTION": 1.00270638, "ECCENTRICITY": 0.0003201, "INCLINATION": 1.9291, "RA_OF_ASC_NODE": 83.2497, "ARG_OF_PERICENTER": 176.8232, "MEAN_ANOMALY": 261.6554, "EPHEMERIS_TYPE": 0, "CLASSIFICATION_TYPE": "U", "NORAD_CAT_ID": 29494, "ELEMENT_SET_NO": 999, "REV_AT_EPOCH": 4947, "BSTAR": 0, "MEAN_MOTION_DOT": -1.11e-06, "MEAN_MOTION_DDOT": 0}, "tle": {"line1": "1 29494U 06043A   25342.51505788 -.00000111  00000+0  00000+0 0  9998", "line2": "2 29494   1.9291  83.2497 0003201 176.8232 261.6554  1.00270638 49470"}}, "geometry": {"type": "Point", "coordinates": [-60.54307051500811, -1.1565261434073375]}}, {"type": "Feature", "properties": {"norad_id": 31307, "name": "GALAXY 17 (G-17)", "group": "intelsat", "lat": -2.0106914033565544, "lon": -44.2921647334097, "alt_km": 35777.98426887432, "timestamp": "2025-12-08T21:31:04.342747+00:00", "meta": {"OBJECT_NAME": "GALAXY 17 (G-17)", "OBJECT_ID": "2007-016B", "EPOCH": "2025-12-08T12:30:32.806656", "MEAN_MOTION": 1.00272606, "ECCENTRICITY": 0.00061229, "INCLINATION": 2.4892, "RA_OF_ASC_NODE": 82.3294, "ARG_OF_PERICENTER": 161.5808, "MEAN_ANOMALY": 296.2543, "EPHEMERIS_TYPE": 0, "CLASSIFICATION_TYPE": "U", "NORAD_CAT_ID": 31307, "ELEMENT_SET_NO": 999, "REV_AT_EPOCH": 6789, "BSTAR": 0, "MEAN_MOTION_DOT": -2.05e-06, "MEAN_MOTION_DDOT": 0}, "tle": {"line1": "1 31307U 07016B   25342.52121304 -.00000205  00000+0  00000+0 0  9998", "line2": "2 31307   2.4892  82.3294 0006122 161.5808 296.2543  1.00272606 67894"}}, "geometry": {"type": "Point", "coordinates": [-44.2921647334097, -2.0106914033565544]}}, {"type": "Feature", "properties": {"norad_id": 31862, "name": "DIRECTV 10", "group": "intelsat", "lat": 0.004601461860430869, "lon": -62.11415346393433, "alt_km": 35784.721455054096, "timestamp": "2025-12-08T21:31:04.342759+00:00", "meta": {"OBJECT_NAME": "DIRECTV 10", "OBJECT_ID": "2007-032A", "EPOCH": "2025-12-08T13:06:55.052928", "MEAN_MOTION": 1.00273681, "ECCENTRICITY": 4.7e-05, "INCLINATION": 0.0146, "RA_OF_ASC_NODE": 154.5451, "ARG_OF_PERICENTER": 77.9506, "MEAN_ANOMALY": 299.0032, "EPHEMERIS_TYPE": 0, "CLASSIFICATION_TYPE": "U", "NORAD_CAT_ID": 31862, "ELEMENT_SET_NO": 999, "REV_AT_EPOCH": 4368, "BSTAR": 0, "MEAN_MOTION_DOT": -1.01e-06, "MEAN_MOTION_DDOT": 0}, "tle": {"line1": "1 31862U 07032A   25342.54647052 -.00000101  00000+0  00000+0 0  9992", "line2": "2 31862   0.0146 154.5451 0000470  77.9506 299.0032  1.00273681 43687"}}, "geometry": {"type": "Point", "coordinates": [-62.11415346393433, 0.004601461860430869]}}, {"type": "Feature", "properties": {"norad_id": 32253, "name": "INTELSAT 11 (IS-11)", "group": "intelsat", "lat": -1.185680060252195, "lon": -76.69369570600304, "alt_km": 36102.122785473926, "timestamp": "2025-12-08T21:31:04.342770+00:00", "meta": {"OBJECT_NAME": "INTELSAT 11 (IS-11)", "OBJECT_ID": "2007-044B", "EPOCH": "2025-12-08T13:54:43.049952", "MEAN_MOTION": 0.99047596, "ECCENTRICITY": 0.00091605, "INCLINATION": 3.0693, "RA_OF_ASC_NODE": 81.0198, "ARG_OF_PERICENTER": 164.1911, "MEAN_ANOMALY": 285.0546, "EPHEMERIS_TYPE": 0, "CLASSIFICATION_TYPE": "U", "NORAD_CAT_ID": 32253, "ELEMENT_SET_NO": 999, "REV_AT_EPOCH": 6656, "BSTAR": 0, "MEAN_MOTION_DOT": 6.7e-07, "MEAN_MOTION_DDOT": 0}, "tle": {"line1": "1 32253U 07044B   25342.57966493  .00000067  00000+0  00000+0 0  9996", "line2": "2 32253   3.0693  81.0198 0009160 164.1911 285.0546  0.99047596 66566"}}, "geometry": {"type": "Point", "coordinates": [-76.69369570600304, -1.185680060252195]}}, {"type": "Feature", "properties": {"norad_id": 32388, "name": "HORIZONS-2", "group": "intelsat", "lat": -1.9038697599970165, "lon": -33.08346653355962, "alt_km": 35775.30287195068, "timestamp": "2025-12-08T21:31:04.342782+00:00", "meta": {"OBJECT_NAME": "HORIZONS-2", "OBJECT_ID": "2007-063B", "EPOCH": "2025-12-08T12:37:06.407904", "MEAN_MOTION": 1.00270706, "ECCENTRICITY": 0.00050513, "INCLINATION": 2.1104, "RA_OF_ASC_NODE": 83.0022, "ARG_OF_PERICENTER": 186.0895, "MEAN_ANOMALY": 283.9362, "EPHEMERIS_TYPE": 0, "CLASSIFICATION_TYPE": "U", "NORAD_CAT_ID": 32388, "ELEMENT_SET_NO": 999, "REV_AT_EPOCH": 6590, "BSTAR": 0, "MEAN_MOTION_DOT": -2.52e-06, "MEAN_MOTION_DDOT": 0}, "tle": {"line1": "1 32388U 07063B   25342.52576861 -.00000252  00000+0  00000+0 0  9994", "line2": "2 32388   2.1104  83.0022 0005051 186.0895 283.9362  1.00270706 65903"}}, "geometry": {"type": "Point", "coordinates": [-33.08346653355962, -1.9038697599970165]}}, {"type": "Feature", "properties": {"norad_id": 32729, "name": "DIRECTV 11", "group": "intelsat", "lat": -0.0031989617692711214, "lon": -58.515045603336425, "alt_km": 35783.7193767738, "timestamp": "2025-12-08T21:31:04.342804+00:00", "meta": {"OBJECT_NAME": "DIRECTV 11", "OBJECT_ID": "2008-013A", "EPOCH": "2025-12-08T12:22:13.979712", "MEAN_MOTION": 1.00277541, "ECCENTRICITY": 6.349e-05, "INCLINATION": 0.0325, "RA_OF_ASC_NODE": 186.1043, "ARG_OF_PERICENTER": 41.6309, "MEAN_ANOMALY": 296.1535, "EPHEMERIS_TYPE": 0, "CLASSIFICATION_TYPE": "U", "NORAD_CAT_ID": 32729, "ELEMENT_SET_NO": 999, "REV_AT_EPOCH": 4368, "BSTAR": 0, "MEAN_MOTION_DOT": -1.24e-06, "MEAN_MOTION_DDOT": 0}, "tle": {"line1": "1 32729U 08013A   25342.51543958 -.00000124  00000+0  00000+0 0  9997", "line2": "2 32729   0.0325 186.1043 0000634  41.6309 296.1535  1.00277541 43683"}}, "geometry": {"type": "Point", "coordinates": [-58.515045603336425, -0.0031989617692711214]}}, {"type": "Feature", "properties": {"norad_id": 32951, "name": "GALAXY 18 (G-18)", "group": "intelsat", "lat": -0.016159240162920144, "lon": -82.34121581775509, "alt_km": 35773.147044529804, "timestamp": "2025-12-08T21:31:04.342823+00:00", "meta": {"OBJECT_NAME": "GALAXY 18 (G-18)", "OBJECT_ID": "2008-024A", "EPOCH": "2025-12-08T12:08:44.778912", "MEAN_MOTION": 1.00271881, "ECCENTRICITY": 0.00031939, "INCLINATION": 0.0154, "RA_OF_ASC_NODE": 290.3666, "ARG_OF_PERICENTER": 329.6467, "MEAN_ANOMALY": 236.6719, "EPHEMERIS_TYPE": 0, "CLASSIFICATION_TYPE": "U", "NORAD_CAT_ID": 32951, "ELEMENT_SET_NO": 999, "REV_AT_EPOCH": 4394, "BSTAR": 0, "MEAN_MOTION_DOT": 2.7e-07, "MEAN_MOTION_DDOT": 0}, "tle": {"line1": "1 32951U 08024A   25342.50607383  .00000027  00000+0  00000+0 0  9999", "line2": "2 32951   0.0154 290.3666 0003193 329.6467 236.6719  1.00271881 43949"}}, "geometry": {"type": "Point", "coordinates": [-82.34121581775509, -0.016159240162920144]}}]}